"","X.1","X","H","diameter","albedo","rot_per","diameter_sigma","epoch","e","a","q","i","om","w","ma","ad","n","tp","per","moid","moid_jup","t_jup","sigma_e","sigma_a","sigma_q","sigma_i","sigma_om","sigma_w","sigma_ma","sigma_ad","sigma_n","sigma_tp","sigma_per","rms","neo_flag","pha_flag","class_var"
"437",439,818,11.9,8.917,0.277,66.7,0.186,2458600.5,0.141723397743779,2.19780256118279,1.88632251464198,4.89561770607944,333.128178885251,306.344116813054,125.628274446706,2.50928260772359,0.302496992519645,2458185.1957902,1190.09447664714,0.874361,2.62345,3.65,2.8975e-08,5.3115e-09,6.3019e-08,3.9763e-06,4.1271e-05,4.4257e-05,1.751e-05,6.0642e-09,1.0966e-09,5.748e-05,4.3142e-06,0.45068,0,0,"S"
"440",442,824,11.5,13.423,0.275,6.94,0.15,2458600.5,0.0749275062024278,2.22577446702608,2.05900273684277,3.39960959465186,101.408880195202,111.786291613792,353.957657768792,2.39254619720938,0.296812604448123,2458620.85743139,1212.8864967489,1.05521,2.57266,3.64,3.9738e-08,6.4131e-09,8.8236e-08,4.2965e-06,7.2449e-05,7.8429e-05,3.1292e-05,6.8936e-09,1.2828e-09,0.00010546,5.242e-06,0.45851,0,0,"S"
"452",454,869,11.7,13.683,0.216,122.3,0.236,2458600.5,0.265000537906428,2.3213851446577,1.70621683263542,6.19240076712853,120.80270742447,196.971234304537,232.33923883006,2.93655345667998,0.278665543651156,2459058.6146255,1291.87123489749,0.693023,2.37585,3.522,3.2667e-08,7.0342e-09,7.6206e-08,3.8136e-06,3.965e-05,4.0572e-05,1.1927e-05,8.8982e-09,1.2666e-09,4.3976e-05,5.8719e-06,0.46141,0,0,"S"
"456",458,896,10.37,24.337,0.214,11.26,0.277,2458600.5,0.0950682502414942,2.54240461503232,2.3007026568753,14.3306412611901,257.970099634224,24.0154795178274,331.603841225574,2.78410657318934,0.243129172299289,2458717.29453562,1480.69438395836,1.29008,2.32486,3.395,4.9333e-08,1.0335e-08,1.2632e-07,5.28e-06,1.9099e-05,3.1715e-05,2.7667e-05,1.1317e-08,1.4825e-09,0.00011408,9.0285e-06,0.42646,0,0,"S"
"458",460,904,11.59,12.07,0.28,14.238,0.419,2458600.5,0.153686288458954,2.21559139591163,1.87508537753238,5.32578906813165,37.1763374761928,343.142217500455,179.340304631975,2.55609741429088,0.29886122277116,2458000.42113072,1204.57246564789,0.877864,2.89773,3.633,4.3505e-08,6.2042e-09,9.5533e-08,4.5515e-06,3.9594e-05,4.1575e-05,1.2807e-05,7.1578e-09,1.2553e-09,4.2719e-05,5.0597e-06,0.43933,0,0,"S"
"463",465,912,11.9,11.636,0.282,4.872,0.24,2458600.5,0.170625008590919,2.19742255222176,1.82248731037104,5.80594082246897,94.9278161460699,188.652132456024,208.402823304716,2.57235779407248,0.302575463911507,2459101.52270269,1189.7858317596,0.805676,2.56616,3.642,4.1911e-08,5.8407e-09,9.2427e-08,4.2224e-06,4.003e-05,4.1736e-05,1.2279e-05,6.8373e-09,1.2064e-09,4.0926e-05,4.7436e-06,0.4442,0,0,"S"
"466",468,924,8.33,57.505,0.248,7.88,0.443,2458600.5,0.0791472776228254,2.7022921558539,2.48841308837654,21.0843324310795,299.539068872994,202.082862411172,112.579887230604,2.91617122333125,0.221873596413153,2458093.09448149,1622.54547553121,1.51095,2.19136,3.266,4.3461e-08,8.6692e-09,1.157e-07,4.2559e-06,1.2096e-05,3.2387e-05,3.0065e-05,9.3554e-09,1.0677e-09,0.00013522,7.8079e-06,0.47209,0,0,"S"
"467",469,928,11.6,11.443,0.272,3.31016,0.19,2458600.5,0.113158088321445,2.23885931653145,1.98551427625209,3.91329445108903,231.387032202407,22.8797006017089,131.702236481941,2.49220435681081,0.294214360698532,2458152.85959193,1223.59764882067,0.971351,2.53676,3.625,3.1856e-08,5.712e-09,7.1306e-08,3.6403e-06,5.9132e-05,6.2344e-05,2.0965e-05,6.3584e-09,1.1259e-09,7.0994e-05,4.6827e-06,0.47881,0,0,"S"
"470",472,944,10.13,25.618,0.239,7.36,0.949,2458600.5,0.163120313786616,2.63565545831039,2.20572651291739,32.8894271282004,318.286258576175,161.973525554242,345.823705345708,3.06558440370339,0.230340931125542,2458662.04483524,1562.90068916926,1.23024,2.0154,3.153,6.8837e-08,1.2455e-08,1.8318e-07,7.8241e-06,9.1071e-06,1.8853e-05,1.8046e-05,1.4487e-08,1.6327e-09,7.8539e-05,1.1078e-05,0.37819,0,0,"S"
"473",475,969,12.2,9.204,0.229,2.777,0.289,2458600.5,0.271497370651253,2.55995315818517,1.86493260674753,5.03245739139131,310.775664813048,95.5163096520927,281.265372351499,3.25497370962282,0.240633476703783,2458927.69731571,1496.05119342209,0.882164,2.1866,3.378,4.4425e-08,9.1861e-09,1.1734e-07,4.1664e-06,5.156e-05,5.2423e-05,1.1746e-05,1.168e-08,1.2952e-09,5.0168e-05,8.0526e-06,0.47575,0,0,"S"
"478",480,993,10.3,20.786,0.31,5.95,1.371,2458600.5,0.116354888297359,2.52919622504538,2.23491188079812,15.4106031001155,2.35000002858418,342.501972674458,156.20094286306,2.82348056929264,0.245036221240011,2457963.03937449,1469.17055028931,1.23219,2.61253,3.392,5.8196e-08,9.4927e-09,1.4928e-07,6.59e-06,1.5243e-05,2.6375e-05,2.0373e-05,1.0597e-08,1.3795e-09,8.3293e-05,8.2712e-06,0.44908,0,0,"S"
"483",485,1015,11.9,9.539,0.308,5.92951,0.078,2458600.5,0.128367282324898,2.21931621895572,1.93442862730881,6.03435221674008,8.84720768366339,53.3126686132904,354.921359730844,2.50420381060263,0.298109141158282,2458617.53617759,1207.61140903377,0.953301,2.79052,3.633,3.8272e-08,6.0131e-09,8.5829e-08,4.5918e-06,3.4706e-05,3.8413e-05,1.655e-05,6.785e-09,1.2116e-09,5.5537e-05,4.9079e-06,0.43867,0,0,"S"
"485",487,1019,12,10.067,0.15,17.02,0.09,2458600.5,0.0441042427734495,2.78866595561445,2.66567395529398,4.05970552076991,180.689710926019,36.7937258058598,103.721949736231,2.91165795593493,0.211645642672086,2458110.42636358,1700.95635069495,1.65979,2.05182,3.325,3.0323e-08,1.0603e-08,8.5429e-08,3.5733e-06,4.8021e-05,6.3218e-05,4.1229e-05,1.1071e-08,1.2071e-09,0.0001948,9.7014e-06,0.48446,0,0,"S"
"491",493,1035,9.45,37.675,0.238,10.297,0.399,2458600.5,0.533234737210055,2.66414533405234,1.24353049695955,26.6876121214449,215.557503840124,132.396355760563,274.156197397786,4.08476017114513,0.226655992021403,2458979.24049495,1588.3100940301,0.343497,1.94996,3.035,2.4958e-08,2.7356e-09,6.6583e-08,4.0789e-06,7.8771e-06,8.2831e-06,2.4259e-06,4.1943e-09,3.491e-10,1.1123e-05,2.4464e-06,0.39158,1,1,"S"
"497",499,1054,12.1,13.479,0.169,11.893,0.225,2458600.5,0.20815910007439,2.19886832703917,1.74115387490062,5.2772265979985,147.132452586028,176.507665035135,310.931654493926,2.65658277917772,0.302277094019326,2458762.82902352,1190.96023854518,0.728105,2.67004,3.633,3.9377e-08,5.6926e-09,8.6221e-08,4.3511e-06,3.8566e-05,3.9608e-05,1.0699e-05,6.8776e-09,1.1738e-09,3.5673e-05,4.6249e-06,0.48611,0,0,"S"
"498",500,1055,11.6,11.869,0.292,11.893,0.136,2458600.5,0.177810901797018,2.22993072945102,1.83342473550245,5.42771745926279,104.139134207433,212.402013267607,43.8666963788006,2.62643672339959,0.295983168770938,2458452.29327405,1216.28537695197,0.821521,2.65172,3.616,3.5281e-08,5.4428e-09,7.9515e-08,3.8528e-06,3.7034e-05,3.8196e-05,1.0105e-05,6.4106e-09,1.0836e-09,3.3978e-05,4.453e-06,0.42518,0,0,"S"
"499",501,1057,11.98,11.91,0.201,46.3,0.27,2458600.5,0.187736571111698,2.19620849488173,1.78389984260625,3.69313459027423,221.746054351132,94.4305275501318,270.715388202039,2.60851714715721,0.302826392768474,2458895.3376163,1188.79994807863,0.774312,2.68077,3.643,4.1143e-08,6.3584e-09,9.111e-08,3.8267e-06,7.035e-05,7.1209e-05,1.4102e-05,7.5521e-09,1.3151e-09,4.7327e-05,5.1627e-06,0.47183,0,0,"S"
"500",502,1068,9.4,35.657,0.219,8.665,0.68,2458600.5,0.110156638730386,3.12671522368052,2.78228678437274,13.5617094283497,142.378803563956,31.6940672288567,183.513482245756,3.47114366298829,0.178267256827494,2459590.51084605,2019.43983660649,1.79924,1.54519,3.162,3.6736e-08,1.4447e-08,1.1522e-07,4.4228e-06,1.9141e-05,2.8862e-05,2.1507e-05,1.6038e-08,1.2355e-09,0.00012241,1.3996e-05,0.45634,0,0,"S"
"504",506,1087,11.39,15.137,0.173,3.0361,0.131,2458600.5,0.19553965830359,2.20160958273603,1.77110759720992,7.65219758899981,54.4931139775379,319.693840948153,21.7056692518966,2.63211156826214,0.301712715465792,2458528.55848697,1193.18802803595,0.780079,2.83579,3.628,4.5836e-08,5.9717e-09,1.0183e-07,4.6647e-06,3.2531e-05,3.3817e-05,1.0985e-05,7.1394e-09,1.2276e-09,3.6256e-05,4.8546e-06,0.45315,0,0,"S"
"507",509,1101,9.4,36.632,0.229,5.1054,0.378,2458600.5,0.110541138294012,3.06854865066238,2.7293477899076,15.8282439637552,216.584747892711,117.100471459046,17.2353784727018,3.40774951141715,0.183359980468739,2458506.50250704,1963.35099447382,1.76322,2.04737,3.164,3.8898e-08,1.5096e-08,1.2191e-07,4.1838e-06,1.655e-05,2.6081e-05,2.1801e-05,1.6765e-08,1.3531e-09,0.00011874,1.4488e-05,0.43362,0,0,"S"
"510",512,1105,11.7,12.14,0.241,2.679,0.093,2458600.5,0.126360685531483,2.59617515021744,2.26812067847616,13.0642314033179,328.259043124364,230.228537911832,165.778336228581,2.92422962195872,0.23561508426979,2457896.90185499,1527.91575766763,1.29236,2.1284,3.369,5.1371e-08,1.1149e-08,1.2963e-07,5.7764e-06,1.6513e-05,2.5216e-05,1.812e-05,1.2557e-08,1.5177e-09,7.7787e-05,9.842e-06,0.45928,0,0,"S"
"517",519,1139,10.28,29.179,0.16,9.77,0.155,2458600.5,0.112628005831042,2.771547953178,2.45939403414646,14.1359094694456,72.1403285648714,309.991851931891,192.663950963423,3.08370187220955,0.21360945806342,2459383.87378201,1685.31863365861,1.4894,2.36962,3.284,4.8064e-08,1.2572e-08,1.3175e-07,4.6483e-06,2.0723e-05,3.0146e-05,2.2846e-05,1.3988e-08,1.4534e-09,0.00010872,1.1467e-05,0.41066,0,0,"S"
"518",520,1146,11.4,13.43,0.155,5.6607,0.197,2458600.5,0.23175981210371,2.2710083537446,1.7446798843948,3.88160390364501,265.195440945215,15.7331895736461,84.0620171282809,2.7973368230944,0.287989050711915,2458308.60689878,1250.04752475857,0.728039,2.34922,3.574,3.5893e-08,5.7143e-09,8.2227e-08,3.949e-06,5.9036e-05,5.9598e-05,9.486e-06,7.0387e-09,1.087e-09,3.2515e-05,4.7181e-06,0.47304,0,0,"S"
"520",522,1151,11.1,17.13,0.203,3.4154,0.115,2458600.5,0.0419794280859086,2.42639184701905,2.32453330496888,5.07902847654555,331.847509806581,217.577280339492,153.498382775855,2.52825038906922,0.260773026180882,2458011.87170119,1380.51088056282,1.32797,2.44303,3.504,4.0963e-08,8.5427e-09,9.9497e-08,4.8199e-06,4.4286e-05,6.823e-05,5.2401e-05,8.9013e-09,1.3772e-09,0.00020055,7.2906e-06,0.4579,0,0,"S"
